{
    "links": {
        "self": "http://www.neowsapp.com/rest/v1/neo/54054269?api_key=iIulBulltgU6a56xZRHN4H3l9WmuAYTsLGpBGhQ2"
    },
    "id": "54054269",
    "neo_reference_id": "54054269",
    "name": "(2020 RA5)",
    "designation": "2020 RA5",
    "nasa_jpl_url": "http://ssd.jpl.nasa.gov/sbdb.cgi?sstr=54054269",
    "absolute_magnitude_h": 22.568,
    "estimated_diameter": {
        "kilometers": {
            "estimated_diameter_min": 0.0814619828,
            "estimated_diameter_max": 0.1821545311
        },
        "meters": {
            "estimated_diameter_min": 81.4619827847,
            "estimated_diameter_max": 182.1545310886
        },
        "miles": {
            "estimated_diameter_min": 0.0506181137,
            "estimated_diameter_max": 0.1131855431
        },
        "feet": {
            "estimated_diameter_min": 267.2637315995,
            "estimated_diameter_max": 597.6198717767
        }
    },
    "is_potentially_hazardous_asteroid": false,
    "close_approach_data": [
        {
            "close_approach_date": "1928-02-20",
            "close_approach_date_full": "1928-Feb-20 04:54",
            "epoch_date_close_approach": -1321124760000,
            "relative_velocity": {
                "kilometers_per_second": "17.78459128",
                "kilometers_per_hour": "64024.528608081",
                "miles_per_hour": "39782.3522342823"
            },
            "miss_distance": {
                "astronomical": "0.1419008381",
                "lunar": "55.1994260209",
                "kilometers": "21228063.130974847",
                "miles": "13190506.7776610086"
            },
            "orbiting_body": "Earth"
        },
        {
            "close_approach_date": "2020-10-17",
            "close_approach_date_full": "2020-Oct-17 19:02",
            "epoch_date_close_approach": 1602961320000,
            "relative_velocity": {
                "kilometers_per_second": "12.7357432461",
                "kilometers_per_hour": "45848.6756859686",
                "miles_per_hour": "28488.5840672065"
            },
            "miss_distance": {
                "astronomical": "0.1228406268",
                "lunar": "47.7850038252",
                "kilometers": "18376696.118744916",
                "miles": "11418749.4737392008"
            },
            "orbiting_body": "Earth"
        }
    ],
    "orbital_data": {
        "orbit_id": "2",
        "orbit_determination_date": "2020-09-21 07:03:03",
        "first_observation_date": "2020-09-09",
        "last_observation_date": "2020-09-21",
        "data_arc_in_days": 12,
        "observations_used": 16,
        "orbit_uncertainty": "7",
        "minimum_orbit_intersection": ".00890335",
        "jupiter_tisserand_invariant": "3.702",
        "epoch_osculation": "2459000.5",
        "eccentricity": ".5712585150762013",
        "semi_major_axis": "1.916612633801916",
        "inclination": "7.596510819051939",
        "ascending_node_longitude": "136.6656457204053",
        "orbital_period": "969.1699650776811",
        "perihelion_distance": ".8217313466399462",
        "perihelion_argument": "306.8508726124913",
        "aphelion_distance": "3.011493920963885",
        "perihelion_time": "2459181.506708691510",
        "mean_anomaly": "292.7647188037644",
        "mean_motion": ".3714518742552502",
        "equinox": "J2000",
        "orbit_class": {
            "orbit_class_type": "APO",
            "orbit_class_description": "Near-Earth asteroid orbits which cross the Earth’s orbit similar to that of 1862 Apollo",
            "orbit_class_range": "a (semi-major axis) > 1.0 AU; q (perihelion) < 1.017 AU"
        }
    },
    "is_sentry_object": false
}